{
  "type": "FeatureCollection",
  "features": [
    {
      "type": "Feature",
      "properties": {
        "norad_id": 35446,
        "name": "COSMOS 2251 DEB",
        "group": "cosmos-2251-debris",
        "lat": -30.531296787188417,
        "lon": -76.49992218027613,
        "alt_km": 706.1098341017541,
        "timestamp": "2025-12-25T22:42:17.409230+00:00",
        "meta_object_name": "COSMOS 2251 DEB",
        "meta_object_id": "1993-036AKQ",
        "meta_epoch": "2025-12-24T02:17:06.099072",
        "meta_mean_motion": 14.54640342,
        "meta_eccentricity": 0.00747088,
        "meta_inclination": 74.0474,
        "meta_ra_of_asc_node": 296.7103,
        "meta_arg_of_pericenter": 51.6552,
        "meta_mean_anomaly": 309.1293,
        "meta_ephemeris_type": 0,
        "meta_classification_type": "U",
        "meta_norad_cat_id": 35446,
        "meta_element_set_no": 999,
        "meta_rev_at_epoch": 88173,
        "meta_bstar": 0.00011899718,
        "meta_mean_motion_dot": 4.98e-06,
        "meta_mean_motion_ddot": 0,
        "tle_line1": "1 35446U 93036AKQ 25358.09520948  .00000498  00000+0  11900-3 0  9997",
        "tle_line2": "2 35446  74.0474 296.7103 0074708  51.6552 309.1293 14.54640342881735"
      },
      "geometry": {
        "type": "Point",
        "coordinates": [
          -76.49992218027613,
          -30.531296787188417
        ]
      }
    },
    {
      "type": "Feature",
      "properties": {
        "norad_id": 35448,
        "name": "COSMOS 2251 DEB",
        "group": "cosmos-2251-debris",
        "lat": 6.699310128709576,
        "lon": -117.60192913262071,
        "alt_km": 710.5739324540145,
        "timestamp": "2025-12-25T22:42:17.409250+00:00",
        "meta_object_name": "COSMOS 2251 DEB",
        "meta_object_id": "1993-036AKS",
        "meta_epoch": "2025-12-17T15:48:08.057376",
        "meta_mean_motion": 14.54306329,
        "meta_eccentricity": 0.00121573,
        "meta_inclination": 73.9037,
        "meta_ra_of_asc_node": 80.133,
        "meta_arg_of_pericenter": 263.1799,
        "meta_mean_anomaly": 96.798,
        "meta_ephemeris_type": 0,
        "meta_classification_type": "U",
        "meta_norad_cat_id": 35448,
        "meta_element_set_no": 999,
        "meta_rev_at_epoch": 87406,
        "meta_bstar": 0.00080210225,
        "meta_mean_motion_dot": 3.379e-05,
        "meta_mean_motion_ddot": 0,
        "tle_line1": "1 35448U 93036AKS 25351.65842659  .00003379  00000+0  80210-3 0  9991",
        "tle_line2": "2 35448  73.9037  80.1330 0012157 263.1799  96.7980 14.54306329874064"
      },
      "geometry": {
        "type": "Point",
        "coordinates": [
          -117.60192913262071,
          6.699310128709576
        ]
      }
    },
    {
      "type": "Feature",
      "properties": {
        "norad_id": 35451,
        "name": "COSMOS 2251 DEB",
        "group": "cosmos-2251-debris",
        "lat": 51.15035761862511,
        "lon": -126.85348180352275,
        "alt_km": 477.9058715195997,
        "timestamp": "2025-12-25T22:42:17.409262+00:00",
        "meta_object_name": "COSMOS 2251 DEB",
        "meta_object_id": "1993-036AKV",
        "meta_epoch": "2025-12-22T16:02:09.713472",
        "meta_mean_motion": 15.36538479,
        "meta_eccentricity": 0.00416089,
        "meta_inclination": 73.9322,
        "meta_ra_of_asc_node": 81.2046,
        "meta_arg_of_pericenter": 326.0524,
        "meta_mean_anomaly": 33.8019,
        "meta_ephemeris_type": 0,
        "meta_classification_type": "U",
        "meta_norad_cat_id": 35451,
        "meta_element_set_no": 999,
        "meta_rev_at_epoch": 67558,
        "meta_bstar": 0.0014760448,
        "meta_mean_motion_dot": 0.00054537,
        "meta_mean_motion_ddot": 0,
        "tle_line1": "1 35451U 93036AKV 25356.66816798  .00054537  00000+0  14760-2 0  9994",
        "tle_line2": "2 35451  73.9322  81.2046 0041608 326.0524  33.8019 15.36538479675584"
      },
      "geometry": {
        "type": "Point",
        "coordinates": [
          -126.85348180352275,
          51.15035761862511
        ]
      }
    },
    {
      "type": "Feature",
      "properties": {
        "norad_id": 35453,
        "name": "COSMOS 2251 DEB",
        "group": "cosmos-2251-debris",
        "lat": 7.478798517945087,
        "lon": 173.85714145209914,
        "alt_km": 732.7876681080152,
        "timestamp": "2025-12-25T22:42:17.409273+00:00",
        "meta_object_name": "COSMOS 2251 DEB",
        "meta_object_id": "1993-036AKX",
        "meta_epoch": "2025-12-16T19:11:22.117056",
        "meta_mean_motion": 14.38003213,
        "meta_eccentricity": 0.00669431,
        "meta_inclination": 74.0096,
        "meta_ra_of_asc_node": 12.8823,
        "meta_arg_of_pericenter": 145.8531,
        "meta_mean_anomaly": 214.6957,
        "meta_ephemeris_type": 0,
        "meta_classification_type": "U",
        "meta_norad_cat_id": 35453,
        "meta_element_set_no": 999,
        "meta_rev_at_epoch": 86277,
        "meta_bstar": 0.00051941791,
        "meta_mean_motion_dot": 1.586e-05,
        "meta_mean_motion_ddot": 0,
        "tle_line1": "1 35453U 93036AKX 25350.79956154  .00001586  00000+0  51942-3 0  9995",
        "tle_line2": "2 35453  74.0096  12.8823 0066943 145.8531 214.6957 14.38003213862776"
      },
      "geometry": {
        "type": "Point",
        "coordinates": [
          173.85714145209914,
          7.478798517945087
        ]
      }
    },
    {
      "type": "Feature",
      "properties": {
        "norad_id": 35455,
        "name": "COSMOS 2251 DEB",
        "group": "cosmos-2251-debris",
        "lat": -27.590224643632606,
        "lon": 98.61723264275038,
        "alt_km": 799.897521106519,
        "timestamp": "2025-12-25T22:42:17.409283+00:00",
        "meta_object_name": "COSMOS 2251 DEB",
        "meta_object_id": "1993-036AKZ",
        "meta_epoch": "2025-12-24T01:01:21.838368",
        "meta_mean_motion": 14.49527997,
        "meta_eccentricity": 0.0099916,
        "meta_inclination": 74.0282,
        "meta_ra_of_asc_node": 273.5823,
        "meta_arg_of_pericenter": 14.4921,
        "meta_mean_anomaly": 345.9066,
        "meta_ephemeris_type": 0,
        "meta_classification_type": "U",
        "meta_norad_cat_id": 35455,
        "meta_element_set_no": 999,
        "meta_rev_at_epoch": 86707,
        "meta_bstar": 0.001441152,
        "meta_mean_motion_dot": 5.866e-05,
        "meta_mean_motion_ddot": 0,
        "tle_line1": "1 35455U 93036AKZ 25358.04261387  .00005866  00000+0  14412-2 0  9995",
        "tle_line2": "2 35455  74.0282 273.5823 0099916  14.4921 345.9066 14.49527997867070"
      },
      "geometry": {
        "type": "Point",
        "coordinates": [
          98.61723264275038,
          -27.590224643632606
        ]
      }
    },
    {
      "type": "Feature",
      "properties": {
        "norad_id": 35456,
        "name": "COSMOS 2251 DEB",
        "group": "cosmos-2251-debris",
        "lat": 72.86388690586806,
        "lon": 160.75986436835393,
        "alt_km": 693.1086589377919,
        "timestamp": "2025-12-25T22:42:17.409293+00:00",
        "meta_object_name": "COSMOS 2251 DEB",
        "meta_object_id": "1993-036ALA",
        "meta_epoch": "2025-12-23T00:04:26.032512",
        "meta_mean_motion": 14.69618117,
        "meta_eccentricity": 0.00667181,
        "meta_inclination": 73.9512,
        "meta_ra_of_asc_node": 97.4858,
        "meta_arg_of_pericenter": 305.2899,
        "meta_mean_anomaly": 54.2041,
        "meta_ephemeris_type": 0,
        "meta_classification_type": "U",
        "meta_norad_cat_id": 35456,
        "meta_element_set_no": 999,
        "meta_rev_at_epoch": 66026,
        "meta_bstar": 0.0018731177,
        "meta_mean_motion_dot": 0.00011509,
        "meta_mean_motion_ddot": 0,
        "tle_line1": "1 35456U 93036ALA 25357.00307908  .00011509  00000+0  18731-2 0  9990",
        "tle_line2": "2 35456  73.9512  97.4858 0066718 305.2899  54.2041 14.69618117660267"
      },
      "geometry": {
        "type": "Point",
        "coordinates": [
          160.75986436835393,
          72.86388690586806
        ]
      }
    },
    {
      "type": "Feature",
      "properties": {
        "norad_id": 35459,
        "name": "COSMOS 2251 DEB",
        "group": "cosmos-2251-debris",
        "lat": 20.850584267408053,
        "lon": 169.06964862700187,
        "alt_km": 765.3773447918584,
        "timestamp": "2025-12-25T22:42:17.409304+00:00",
        "meta_object_name": "COSMOS 2251 DEB",
        "meta_object_id": "1993-036ALD",
        "meta_epoch": "2025-12-21T18:23:18.751200",
        "meta_mean_motion": 14.37474606,
        "meta_eccentricity": 0.0015969,
        "meta_inclination": 73.8701,
        "meta_ra_of_asc_node": 170.5081,
        "meta_arg_of_pericenter": 115.4549,
        "meta_mean_anomaly": 244.8258,
        "meta_ephemeris_type": 0,
        "meta_classification_type": "U",
        "meta_norad_cat_id": 35459,
        "meta_element_set_no": 999,
        "meta_rev_at_epoch": 58491,
        "meta_bstar": 0.00020108543,
        "meta_mean_motion_dot": 5.75e-06,
        "meta_mean_motion_ddot": 0,
        "tle_line1": "1 35459U 93036ALD 25355.76618925  .00000575  00000+0  20109-3 0  9992",
        "tle_line2": "2 35459  73.8701 170.5081 0015969 115.4549 244.8258 14.37474606584917"
      },
      "geometry": {
        "type": "Point",
        "coordinates": [
          169.06964862700187,
          20.850584267408053
        ]
      }
    }
  ]
}